HIMAWARI-8              
1 40267U 14060A   24296.94343038 -.00000283  00000+0  00000+0 0  9999
2 40267   0.0105 214.6815 0001204  26.7142 270.7689  1.00272301 36726
